[{"OBJECT_NAME":"OBJECT C","OBJECT_ID":"2023-104C","EPOCH":"2026-03-09T22:39:44.230752","MEAN_MOTION":15.26846312,"ECCENTRICITY":0.00113074,"INCLINATION":97.273,"RA_OF_ASC_NODE":135.3333,"ARG_OF_PERICENTER":3.876,"MEAN_ANOMALY":356.2565,"EPHEMERIS_TYPE":0,"CLASSIFICATION_TYPE":"U","NORAD_CAT_ID":57426,"ELEMENT_SET_NO":999,"REV_AT_EPOCH":14663,"BSTAR":0.00062618506,"MEAN_MOTION_DOT":0.00016495,"MEAN_MOTION_DDOT":0},{"OBJECT_NAME":"STARLINK-36140","OBJECT_ID":"2025-294E","EPOCH":"2026-03-09T22:31:06.716352","MEAN_MOTION":15.27574492,"ECCENTRICITY":0.00012326,"INCLINATION":43.0008,"RA_OF_ASC_NODE":36.9792,"ARG_OF_PERICENTER":266.4315,"MEAN_ANOMALY":93.6396,"EPHEMERIS_TYPE":0,"CLASSIFICATION_TYPE":"U","NORAD_CAT_ID":67034,"ELEMENT_SET_NO":999,"REV_AT_EPOCH":1483,"BSTAR":0.0011873667,"MEAN_MOTION_DOT":0.0003255,"MEAN_MOTION_DDOT":0}]
